STARLINK-5324           
1 55677U 23021BB  23067.66667824 -.00142024  00000+0 -11954-2 0  9997
2 55677  70.0005  96.7848 0003266 272.1213 204.1954 15.70005779  3516
STARLINK-5314           
1 55678U 23021BC  23067.66667824 -.00149873  00000+0 -12628-2 0  9996
2 55678  70.0005  96.7886 0003166 266.1221 207.2257 15.70005056  3518
INMARSAT 6-F2           
1 55683U 23022A   23067.08861435 -.00001030  00000+0 -17469-1 0  9992
2 55683  26.1024  47.4710 7478640 173.7515  91.3203  1.88225110   288
FALCON 9 R/B            
1 55684U 23022B   23066.11954275  .00011575  00000+0  21594-2 0  9999
2 55684  27.0750  47.2472 7583163 173.9700 208.6209  1.92558868   309
DRUMS TARGET-1          
1 55685U 21102M   23067.13010607  .00026334  00000+0  18418-2 0  9992
2 55685  97.5008 123.5535 0021645  45.4215 314.8781 15.05066408  2686
CHINASAT 26 (ZX 26)     
1 55686U 23023A   23066.83789206 -.00000353  00000+0  00000+0 0  9990
2 55686   0.0321  50.6752 0002977   2.6240 178.7095  1.00273768   238
CZ-3B R/B               
1 55687U 23023B   23066.01900458  .00065553  13487-5  46731-2 0  9990
2 55687  27.9146 322.8682 7215946 186.2740 163.9009  2.39258329   286
SOYUZ-MS 23             
1 55688U 23024A   23066.59174225  .00066534  00000+0  11882-2 0  9990
2 55688  51.6401 111.7906 0006758  46.3047  89.9767 15.49395021386031
2023-025A               
1 55690U 23025A   23067.58611961  .00015690  00000+0  66231-3 0  9993
2 55690  97.4714 141.4428 0012138 196.3312 299.8819 15.23297213  1870
2023-025B               
1 55691U 23025B   23067.49280486  .00013104  00000+0  61639-3 0  9993
2 55691  97.6008 141.5980 0065856 239.9863 215.0228 15.17749274  1857
2023-025C               
1 55692U 23025C   23067.29842650  .00105417  00000+0  48642-2 0  9996
2 55692  97.6532 141.2422 0090783 186.7275 173.2930 15.16139564  1849
2023-025D               
1 55693U 23025D   23067.30191426  .00140166  00000+0  64311-2 0  9998
2 55693  97.2434 140.7100 0092928 185.7130 174.3186 15.16020057  1825
2023-025E               
1 55694U 23025E   23067.18951121 -.00000058  00000+0  00000+0 0  9999
2 55694  97.2844 140.1808 0160020 126.4566 235.6096 14.87675031  1796
STARLINK-30050          
1 55695U 23026A   23067.33334491  .00017318  00000+0  19487-3 0  9992
2 55695  43.0020 233.3686 0001696 262.8650 210.6806 15.62275488  2343
STARLINK-30038          
1 55696U 23026B   23067.66667824 -.00022456  00000+0 -24341-3 0  9994
2 55696  43.0008 231.3832 0002139 265.0782 287.1255 15.62317836  2391
STARLINK-30040          
1 55697U 23026C   23067.33334491  .00119330  00000+0  13031-2 0  9999
2 55697  43.0007 233.3614 0002248 232.8859 243.7889 15.62223108  2343
STARLINK-30061          
1 55698U 23026D   23067.50001157  .00007130  00000+0  82859-4 0  9999
2 55698  43.0020 232.3658 0001353 268.2653  68.8549 15.62291658  2363
STARLINK-30055          
1 55699U 23026E   23067.66667824 -.00104748  00000+0 -11621-2 0  9998
2 55699  43.0022 231.3385 0001837 253.3250 317.7332 15.62343989  2391
STARLINK-30064          
1 55700U 23026F   23066.91667824  .00053907  00000+0  59550-3 0  9990
2 55700  43.0025 235.7976 0002162 242.1528  67.3765 15.62238629  1309
STARLINK-30065          
1 55701U 23026G   23067.33334491 -.00051761  00000+0 -56669-3 0  9995
2 55701  43.0015 233.3109 0002083 241.2407 256.0933 15.62415548  2345
STARLINK-30042          
1 55702U 23026H   23067.66667824 -.00014778  00000+0 -15893-3 0  9992
2 55702  43.0022 231.3255 0001884 267.3800 308.9030 15.62254983  2392
STARLINK-30044          
1 55703U 23026J   23067.33334491 -.00034941  00000+0 -38168-3 0  9992
2 55703  43.0022 233.3028 0001574 267.0086 233.9082 15.62326000  2341
STARLINK-30051          
1 55704U 23026K   23067.33334491 -.00066118  00000+0 -72875-3 0  9997
2 55704  43.0021 233.2985 0002130 259.4305 243.2120 15.62331833  2347
STARLINK-30057          
1 55705U 23026L   23067.16667824 -.00015771  00000+0 -16966-3 0  9996
2 55705  43.0023 234.2865 0001927 269.9742  15.8673 15.62294720  2318
STARLINK-30054          
1 55706U 23026M   23067.33334491 -.00012177  00000+0 -12982-3 0  9998
2 55706  43.0020 233.2903 0001871 245.3900 260.6792 15.62317791  2349
STARLINK-30060          
1 55707U 23026N   23067.33334491 -.00236252  00000+0 -26590-2 0  9990
2 55707  43.0019 233.2860 0001413 262.9542 244.9018 15.62443862  2344
STARLINK-30058          
1 55708U 23026P   23067.33334491 -.00089156  00000+0 -98792-3 0  9994
2 55708  43.0022 233.2821 0001726 245.1379 264.4472 15.62309584  2347
STARLINK-30047          
1 55709U 23026Q   23067.66667824  .00060384  00000+0  66624-3 0  9999
2 55709  43.0018 231.2972 0001523 270.0925 318.1953 15.62229920  2398
STARLINK-30046          
1 55710U 23026R   23067.66667824  .00122683  00000+0  13378-2 0  9999
2 55710  43.0017 231.2935 0001579 249.3816 340.5778 15.62247804  2392
STARLINK-30048          
1 55711U 23026S   23067.50001157 -.00063741  00000+0 -70257-3 0  9995
2 55711  43.0020 232.2789 0001558 261.3073 111.8764 15.62319871  2377
STARLINK-30037          
1 55712U 23026T   23067.16667824 -.00031846  00000+0 -34754-3 0  9990
2 55712  43.0022 234.2577 0001946 253.3524  44.5103 15.62311257  2313
STARLINK-30063          
1 55713U 23026U   23067.50001157 -.00092350  00000+0 -10228-2 0  9996
2 55713  43.0019 232.2665 0001536 279.9104  98.4241 15.62336918  2377
STARLINK-30059          
1 55714U 23026V   23067.16667824 -.00003109  00000+0 -29863-4 0  9999
2 55714  43.0022 234.2534 0001931 249.1035  50.4816 15.62300545  2317
STARLINK-30062          
1 55715U 23026W   23067.50001157  .00034111  00000+0  37880-3 0  9991
2 55715  43.0050 232.2167 0001761 274.6091 126.9312 15.62276585  2377
SS3 DEB                 
1 55738U 23019J   23062.12294773  .00524338  00000+0  50146-2 0  9993
2 55738  37.1899 340.0103 0040007 179.9437 180.1339 15.63208805  2925
SS3 DEB                 
1 55739U 23019K   23061.14607851  .00641259  00000+0  42720-2 0  9991
2 55739  37.1980 345.1153 0052018 172.5715 187.5835 15.70902945  3085
CREW DRAGON 6           
1 55740U 23027A   23066.59174225  .00066534  00000+0  11882-2 0  9992
2 55740  51.6401 111.7906 0006758  46.3047  89.9767 15.49395021386030
